[{"OBJECT_NAME":"STARLINK-5146","OBJECT_ID":"2022-136Y","EPOCH":"2026-03-09T22:03:12.423456","MEAN_MOTION":15.08834525,"ECCENTRICITY":0.00013963,"INCLINATION":53.2197,"RA_OF_ASC_NODE":337.7528,"ARG_OF_PERICENTER":92.1281,"MEAN_ANOMALY":267.9871,"EPHEMERIS_TYPE":0,"CLASSIFICATION_TYPE":"U","NORAD_CAT_ID":54073,"ELEMENT_SET_NO":999,"REV_AT_EPOCH":18695,"BSTAR":-4.1991979e-5,"MEAN_MOTION_DOT":-9.56e-6,"MEAN_MOTION_DDOT":0},{"OBJECT_NAME":"COSMOS 397 DEB","OBJECT_ID":"1971-015S","EPOCH":"2026-03-09T10:33:28.052064","MEAN_MOTION":14.09044081,"ECCENTRICITY":0.04582659,"INCLINATION":65.7053,"RA_OF_ASC_NODE":78.3879,"ARG_OF_PERICENTER":64.4346,"MEAN_ANOMALY":300.3365,"EPHEMERIS_TYPE":0,"CLASSIFICATION_TYPE":"U","NORAD_CAT_ID":5091,"ELEMENT_SET_NO":999,"REV_AT_EPOCH":68954,"BSTAR":0.0011725806,"MEAN_MOTION_DOT":5.343e-5,"MEAN_MOTION_DDOT":0}]
